P/2016 G1 (PANSTARRS),e,10.9711,204.0203,111.1325,2.582506,0.2374882,0.21085250,124.4831,08/28.0/2022,2000,g 14.0,4.0
# From MPEC 2017-D91
P/2016 J1-A (PANSTARRS),e,14.3288,199.8117,47.0135,3.171943,0.1744681,0.22766777,32.8368,08/28.0/2022,2000,g 16.5,4.0
# From MPEC 2017-A77
P/2016 J1-B (PANSTARRS),e,14.3316,199.8165,46.9047,3.171576,0.1744984,0.22751875,32.9804,08/28.0/2022,2000,g 17.0,4.0
# From MPEC 2022-ED3
C/2016 M1 (PANSTARRS),e,90.9010,92.2506,209.9374,352415,0.0000000,0.99999372,0.0000,08/10.5585/2018,2000,g  5.0,4.0
# From MPEC 2022-OB6
C/2016 N4 (MASTER),e,72.6532,353.9901,55.9601,7178,0.0000016,0.99955470,0.0000,09/17.6783/2017,2000,g  8.5,4.0
# From MPEC 2021-P47
C/2016 N6 (PANSTARRS),e,105.8526,298.9389,162.6052,1023,0.0000301,0.99739881,0.0000,07/17.6087/2018,2000,g  7.0,4.0
# From MPC102099
P/2016 P1 (PANSTARRS),e,24.4400,319.5614,270.3326,3.197456,0.1723841,0.28938984,76.3715,08/28.0/2022,2000,g 15.0,4.0
# From MPEC 2022-M21
C/2016 Q2 (PANSTARRS),h,05/12.2821/2021,109.3857,322.3037,84.5525,1.002517,7.081982,2000,6.0,4.0
# From MPC102955
C/2016 Q4 (Kowalski),e,7.2485,271.2966,99.6233,17.00755,0.0140521,0.58289507,23.4685,08/28.0/2022,2000,g  7.0,4.0
# From MPEC 2021-N06
C/2016 R2 (PANSTARRS),e,58.3056,80.5234,33.1005,475.8356,0.0000950,0.99454099,0.0000,05/09.0782/2018,2000,g  7.0,4.0
# From MPEC 2022-K19
P/2016 R4 (Gibbs),e,10.8780,168.2613,174.1136,5.332259,0.0800455,0.47632960,178.1859,08/28.0/2022,2000,g 12.5,4.0
# From MPC105543
P/2016 S1 (PANSTARRS),e,94.7224,227.6338,273.2658,8.276771,0.0413916,0.71019270,82.3957,08/28.0/2022,2000,g 12.0,4.0
# From MPC110082
C/2016 T3 (PANSTARRS),e,22.7136,271.6625,194.5746,129.0603,0.0006722,0.97955716,0.0000,09/06.8789/2017,2000,g 10.5,4.0
# From MPC106345
P/2016 WM48 (Lemmon),e,117.5585,59.9267,36.1283,8.167921,0.0422218,0.78350183,84.9398,08/28.0/2022,2000,g 15.0,4.0
# From MPEC 2021-P47
C/2016 X1 (Lemmon),e,26.4565,256.3556,224.4738,1301,0.0000210,0.99419144,0.0000,04/27.7984/2019,2000,g  6.0,4.0
# From MPC114598
C/2017 AB5 (PANSTARRS),e,32.4619,42.6010,78.2841,2465,0.0000081,0.99626515,0.0000,02/14.4310/2018,2000,g  5.5,4.0
# From MPEC 2022-OB6
C/2017 B3 (LINEAR),h,02/01.7750/2019,54.1584,2.1748,284.8270,1.000554,3.928042,2000,6.0,4.0
# From MPC103847
P/2017 B4 (PANSTARRS),e,20.0584,121.4578,11.0197,4.410520,0.1064068,0.36495152,359.9130,01/05.0/2017,2000,g 14.5,4.0
# From MPEC 2022-OB6
P/2017 D1 (Fuls),e,20.7643,82.1859,7.9569,4.828356,0.0928977,0.43675010,209.6862,08/28.0/2022,2000,g 14.0,4.0
# From MPEC 2022-OB6
P/2017 D4 (PANSTARRS),e,10.5447,264.9408,212.1571,7.550583,0.0475043,0.62873157,103.7080,08/28.0/2022,2000,g 13.0,4.0
# From MPC111769
C/2017 F1 (Lemmon),h,11/28.2282/2017,146.4645,158.7874,64.7195,1.001576,4.499177,2000,10.5,4.0
# From MPC114598
C/2017 F2 (PANSTARRS),h,11/25.7103/2017,42.5557,38.7046,134.9031,1.001889,6.924912,2000,7.5,4.0
# From MPC104794
P/2017 G1 (PANSTARRS),e,4.7819,249.6635,224.3846,7.277184,0.0502064,0.65347097,116.1771,08/28.0/2022,2000,g 13.5,4.0
# From MPC108595
P/2017 G2 (PANSTARRS),e,47.9573,79.8262,105.4432,8.053699,0.0431232,0.64753763,82.1730,08/28.0/2022,2000,g 13.0,4.0
# From MPC115882
C/2017 K1 (PANSTARRS),h,03/17.9255/2018,154.0215,225.7255,4.4266,1.003443,7.284641,2000,7.0,4.0
# From MPEC 2022-QD9
C/2017 K2 (PANSTARRS),h,12/19.6832/2022,87.5623,88.2351,236.1980,1.000799,1.796902,2000,1.5,4.0
# From MPEC 2021-N06
P/2017 K3 (Gasparovic),e,4.2732,354.2907,253.4367,5.584642,0.0746812,0.57931036,143.1780,08/28.0/2022,2000,g 14.5,4.0
# From MPC114598
C/2017 K4 (ATLAS),e,16.6651,298.9095,15.3419,28.69243,0.0064129,0.90727762,10.8553,08/28.0/2022,2000,g 10.0,4.0
# From MPEC 2021-P47
C/2017 K5 (PANSTARRS),h,03/27.3837/2020,82.2467,102.3814,172.0666,1.005327,7.683797,2000,5.0,4.0
# From MPC114599
C/2017 K6 (Jacques),e,57.2223,84.9101,303.8027,1219,0.0000231,0.99836349,0.0000,01/04.0084/2018,2000,g 11.0,4.0
# From MPEC 2022-OB6
C/2017 M4 (ATLAS),h,01/17.9773/2019,105.6426,65.9513,167.6157,1.001311,3.252716,2000,6.0,4.0
# From MPC118841
C/2017 M5 (TOTAS),h,06/04.3554/2018,15.8637,216.2891,92.8570,1.005239,6.003554,2000,6.5,4.0
# From MPEC 2022-OB6
C/2017 O1 (ASASSN),e,39.9863,25.7156,20.8424,378.0556,0.0001341,0.99605674,0.0000,10/15.8993/2017,2000,g 11.0,4.0
# From MPC114599
P/2017 P1 (PANSTARRS),e,7.6901,221.3702,122.6571,7.910905,0.0442960,0.31096236,67.6651,08/28.0/2022,2000,g 10.0,4.0
# From MPC114599
C/2017 P2 (PANSTARRS),e,50.0484,165.4580,132.5104,2561,0.0000076,0.99903347,0.0000,12/05.9548/2017,2000,g 10.0,4.0
# From MPC108595
C/2017 S2 (PANSTARRS),e,12.6688,62.3195,306.1369,20.65435,0.0104999,0.82496800,19.1435,08/28.0/2022,2000,g 13.0,4.0
# From MPC114599
C/2017 S3 (PANSTARRS),h,08/16.5713/2018,99.2091,171.3147,255.8304,1.000090,0.205600,2000,12.9,4.0
# From MPC109591
C/2017 S6 (Catalina),h,02/26.1525/2018,152.8653,131.1045,134.9956,1.000914,1.551121,2000,12.5,4.0
# From MPEC 2022-OB6
P/2017 S8 (PANSTARRS),e,29.8486,191.5192,254.8476,2.777741,0.2128954,0.39074222,356.1281,08/28.0/2022,2000,g 16.0,4.0
# From MPC107050
P/2017 S9 (PANSTARRS),e,14.1427,146.2247,237.6020,3.155770,0.1758110,0.30564745,327.7717,08/28.0/2022,2000,g 17.0,4.0
# From MPC114600
C/2017 T1 (Heinze),e,96.9032,102.5277,97.0270,10778,0.0000009,0.99994564,0.0000,02/20.6486/2018,2000,g 14.5,4.0
# From MPEC 2021-Y10
C/2017 T2 (PANSTARRS),e,57.2515,64.3992,92.9504,1690,0.0000142,0.99904461,0.0000,05/04.7947/2020,2000,g  5.0,4.0
# From MPC114600
C/2017 T3 (ATLAS),e,88.2222,230.2019,246.8102,1207,0.0000235,0.99931723,0.0000,07/19.0373/2018,2000,g 10.0,4.0
# From MPC115882
P/2017 TW13 (Lemmon),e,44.8495,322.2751,119.9137,7.136421,0.0516991,0.71007920,79.0208,08/28.0/2022,2000,g 15.0,2.0
# From MPC114600
C/2017 U2 (Fuls),e,95.3927,149.7148,147.8959,2718,0.0000070,0.99752836,0.0000,08/28.2011/2017,2000,g  9.0,4.0
# From MPEC 2022-K19
P/2017 U3 (PANSTARRS),e,15.9187,165.1103,296.3552,4.925870,0.0901529,0.09942453,111.2114,08/28.0/2022,2000,g 11.0,4.0
# From MPEC 2021-P47
C/2017 U4 (PANSTARRS),e,158.2042,245.9169,158.9750,976125,0.0000000,0.99999209,0.0000,09/21.9513/2018,2000,g  7.0,4.0
# From MPC114600
C/2017 U5 (PANSTARRS),e,18.9784,163.0862,261.9952,16.90271,0.0141830,0.74468791,24.2898,08/28.0/2022,2000,g 12.0,4.0
# From MPEC 2022-PB4
C/2017 U7 (PANSTARRS),h,09/14.9682/2019,142.6063,276.2581,326.3996,1.001240,6.427264,2000,8.3,2.0
# From MPC114600
C/2017 W2 (Leonard),e,98.2066,312.8170,168.8862,13.61373,0.0196218,0.71020199,34.5670,08/28.0/2022,2000,g 11.0,4.0
# From MPC114601
P/2017 W3 (Gibbs),e,18.1672,210.2262,327.8315,7.834118,0.0449489,0.50641980,73.8450,08/28.0/2022,2000,g 10.5,4.0
# From MPEC 2021-R75
C/2017 X1 (PANSTARRS),e,31.3286,251.1478,283.1780,31.06189,0.0056933,0.84977861,8.7441,08/28.0/2022,2000,g 10.0,4.0
# From MPEC 2022-N37
C/2017 Y1 (PANSTARRS),e,55.2529,307.4897,134.2413,1818,0.0000127,0.99796300,0.0000,08/31.7308/2017,2000,g 11.5,4.0
# From MPEC 2022-QD9
C/2017 Y2 (PANSTARRS),h,11/05.0382/2020,128.4296,66.0039,147.9320,1.001253,4.632978,2000,15.0,4.0
# From MPC111770
P/2017 Y3 (Leonard),e,27.5598,153.8475,67.5974,9.827202,0.0319933,0.86956128,53.1386,08/28.0/2022,2000,g 16.5,4.0
# From MPC114601
C/2018 A1 (PANSTARRS),e,53.6094,336.6525,96.1828,25.11252,0.0078319,0.90415803,13.8743,08/28.0/2022,2000,g 12.5,4.0
# From MPEC 2021-P47
C/2018 A3 (ATLAS),e,139.5364,194.2925,86.3526,381.6599,0.0001322,0.99141282,0.0000,01/11.3552/2019,2000,g  8.5,4.0
# From MPC114601
C/2018 A4 (PANSTARRS),e,3.1499,97.5935,355.9618,12.18405,0.0231748,0.80368438,36.1970,08/28.0/2022,2000,g 14.0,4.0
# From MPC109147
P/2018 A5 (PANSTARRS),e,23.6019,87.7974,359.4913,5.629538,0.0737896,0.52311317,132.7695,08/28.0/2022,2000,g 15.0,4.0
# From MPEC 2022-C56
C/2018 A6 (Gibbs),e,77.0559,340.3809,264.3701,15.07439,0.0168401,0.79982155,19.2482,08/28.0/2022,2000,g  9.0,4.0
# From MPEC 2022-O08
C/2018 B1 (Lemmon),e,162.4188,133.1915,68.3842,5442,0.0000025,0.99905766,0.0000,03/27.8629/2018,2000,g  9.0,4.0
# From MPC114601
P/2018 C1 (Lemmon-Read),e,5.1130,270.3451,235.6991,5.653009,0.0733305,0.53206058,120.7245,08/28.0/2022,2000,g 13.5,4.0
# From MPC114601
C/2018 C2 (Lemmon),h,05/31.5735/2018,34.4631,91.2248,134.0465,1.000126,1.960828,2000,13.0,4.0
# From MPEC 2022-M88
C/2018 DO4 (Lemmon),e,160.4447,251.4259,176.2876,25.37530,0.0077106,0.90493833,8.5343,08/28.0/2022,2000,g 11.0,4.0
# From MPC114602
C/2018 E1 (ATLAS),e,72.5094,146.8514,299.2996,53.85619,0.0024937,0.94997833,3.9727,08/28.0/2022,2000,g 10.5,4.0
# From MPEC 2022-N37
C/2018 E2 (Barros),e,97.6337,67.1597,277.4451,2940,0.0000062,0.99866694,0.0000,12/23.7799/2017,2000,g 10.5,4.0
# From MPC114602
C/2018 EN4 (NEOWISE),e,81.9251,136.1281,35.0388,17.94550,0.0129649,0.91857597,20.0620,08/28.0/2022,2000,g 15.0,4.0
# From MPC114602
C/2018 EF9 (Lemmon),e,84.6163,172.5533,72.6287,467.3849,0.0000975,0.99666061,0.0000,05/21.5802/2018,2000,g 18.0,2.0
# From MPEC 2021-R75
C/2018 F1 (Grauer),e,46.0771,177.2756,71.5992,247.6018,0.0002530,0.98789757,0.0000,12/12.4219/2018,2000,g 11.5,4.0
# From MPC110084
C/2018 F3 (Johnson),p,08/15.2314/2017,105.5348,293.0113,2.483172,173.0311,2000,13.0,4.0
# From MPEC 2021-W31
C/2018 F4 (PANSTARRS),h,12/03.5444/2019,78.0845,26.5156,263.2265,1.000133,3.442710,2000,11.0,6.0
# From MPEC 2021-Y10
C/2018 F4-A,h,12/03.5326/2019,78.0847,26.5158,263.2233,1.000081,3.442578,2000,11.0,6.0
# From MPEC 2021-W31
C/2018 F4-B,h,12/03.4688/2019,78.0855,26.5154,263.2084,1.000178,3.442360,2000,11.0,6.0
# From MPC114602
P/2018 H2 (PANSTARRS),e,7.4069,68.0513,120.0119,4.384051,0.1073719,0.54186685,180.4989,08/28.0/2022,2000,g 16.6,2.0
# From MPC114602
C/2018 K1 (Weiland),e,164.1901,260.1515,325.2249,30.18777,0.0059423,0.93764957,9.5281,08/28.0/2022,2000,g 14.9,4.0
# From MPEC 2021-R75
C/2018 KJ3 (Lemmon),e,136.6844,91.6408,217.6759,961.8564,0.0000330,0.99622770,0.0000,09/09.9681/2019,2000,g 12.2,2.0
# From MPC114602
P/2018 L1 (PANSTARRS),e,10.5821,268.6217,18.0367,3.653187,0.1411550,0.48205212,195.4960,08/28.0/2022,2000,g 15.0,4.0
# From MPEC 2021-P47
